NIMIQ 2                 
1 27632U 02062A   26193.10248225 -.00000075  00000+0  00000+0 0  9996
2 27632   9.5011  56.6304 0005271  53.0910 107.9713  1.00270139 44431
USA 167                 
1 27691U 03008A   26193.11114862 -.00000002  00000+0  00000+0 0  9992
2 27691  11.0088  43.1806 0003325 309.5051 215.6054  1.00270394  7021
USA 169 (MILSTAR-2 4)   
1 27711U 03012A   26192.88015818 -.00000202  00000+0  00000+0 0  9996
2 27711  12.3855  29.6356 0099246  10.1630 358.9712  1.00273664 33208
ASIASAT 4               
1 27718U 03014A   26192.59776293 -.00000222  00000+0  00000+0 0  9996
2 27718   4.7645  75.4402 0002908  35.8393 180.9556  1.00270582 45542
HELLAS-SAT 2            
1 27811U 03020A   26192.84812384 -.00000088  00000+0  00000+0 0  9997
2 27811   7.4132  67.5860 0003470  79.1889  78.2695  1.00271348 43095
THURAYA-2               
1 27825U 03026A   26193.14395787  .00000121  00000+0  00000+0 0  9992
2 27825   8.8770  31.8615 0002565  23.8840 330.1229  1.00272633 84593
OPTUS C1                
1 27831U 03028B   26192.61180458 -.00000154  00000+0  00000+0 0  9996
2 27831   6.9479  69.1103 0005201  39.1910 197.1867  1.00269515 53308
USA 170                 
1 27875U 03040A   26192.82206185  .00000121  00000+0  00000+0 0  9990
2 27875  10.5501  47.7102 0001761  81.9616 120.2124  1.00274052 33245
GALAXY 13 (HORIZONS-1)  
1 27954U 03044A   26193.10555602  .00000134  00000+0  00000+0 0  9999
2 27954   1.4817  83.5473 0002205  22.9442  71.5020  1.00269952 46821
YAMAL 202               
1 28089U 03053A   26192.61587368 -.00000082  00000+0  00000+0 0  9991
2 28089   6.4021  70.6413 0003332  37.7537 206.3876  1.00272180 82942
UFO 11 (USA 174)        
1 28117U 03057A   26193.07892153 -.00000108  00000+0  00000+0 0  9998
2 28117   8.9538  33.7024 0002649  90.2980 269.9767  1.00270283 82696
USA 176 (DSP 22)        
1 28158U 04004A   26193.02916720 -.00000302  00000+0  00000+0 0  9994
2 28158  12.0948  25.8814 0001104 285.8583 299.3115  1.00266820 33183
ABS-4 (MOBISAT-1)       
1 28184U 04007A   26193.15441478  .00000036  00000+0  00000+0 0  9996
2 28184   6.1024  71.7028 0004605  40.4392 294.4345  1.00272639 52581
INTELSAT 10-02          
1 28358U 04022A   26192.99250764 -.00000008  00000+0  00000+0 0  9993
2 28358   0.0519 255.9518 0000593 328.8445  61.3886  1.00270427 80800
ANIK F2                 
1 28378U 04027A   26193.18454507 -.00000051  00000+0  00000+0 0  9991
2 28378   3.3495  79.1121 0003557  30.8308 135.4467  1.00271164 41510
AMC-15                  
1 28446U 04041A   26193.13146176 -.00000086  00000+0  00000+0 0  9996
2 28446   0.0348 303.4038 0002284 185.9206 102.9745  1.00271279 79552
NSS-10                  
1 28526U 05003A   26193.20394369 -.00000256  00000+0  00000+0 0  9990
2 28526   6.5097  70.1454 0002578  38.0995 217.8253  1.00270905 53403
INMARSAT 4-F1           
1 28628U 05009A   26192.74279605  .00000032  00000+0  00000+0 0  9993
2 28628   5.2002  42.7797 0002499  72.5823 259.7934  1.00270973 77916
DIRECTV 8               
1 28659U 05019A   26193.11166862  .00000004  00000+0  00000+0 0  9999
2 28659   0.0201  75.6431 0003028  50.2413  85.2707  1.00271091 77328
GALAXY 28 (G-28)        
1 28702U 05022A   26193.14466012 -.00000201  00000+0  00000+0 0  9995
2 28702   3.3609  78.6277 0002314  29.9876 206.3951  1.00270933 52222
THAICOM 4               
1 28786U 05028A   26192.80242917 -.00000358  00000+0  00000+0 0  9994
2 28786   0.3063  85.5355 0001389  12.0878 240.4444  1.00269596 52493
ANIK F1R                
1 28868U 05036A   26193.13278869 -.00000077  00000+0  00000+0 0  9994
2 28868   4.3738  76.2694 0003722  26.9449 127.3180  1.00271312 46707
SYRACUSE 3A             
1 28885U 05041B   26193.02281948  .00000127  00000+0  00000+0 0  9994
2 28885   4.7034  75.5350 0002744  29.8831 239.3434  1.00272724 75997
INMARSAT 4-F2           
1 28899U 05044A   26193.02084778 -.00000262  00000+0  00000+0 0  9995
2 28899   5.1261  43.6542 0002784  60.0005 337.2653  1.00271075 75777
METEOSAT-9 (MSG-2)      
1 28912U 05049B   26192.72683765  .00000120  00000+0  00000+0 0  9995
2 28912   9.4145  53.9209 0002049 357.1028 185.9350  1.00270407  7241
EUTELSAT 174A           
1 28924U 05052A   26192.61863230  .00000009  00000+0  00000+0 0  9993
2 28924   4.2778  76.2239 0005783  36.7704 213.1891  1.00270269 52575
ECHOSTAR 10             
1 28935U 06003A   26193.18471839 -.00000053  00000+0  00000+0 0  9995
2 28935   0.0366 305.5143 0001091 140.4375 160.4487  1.00270597 74710
SPAINSAT                
1 28945U 06007A   26192.28065796 -.00000211  00000+0  00000+0 0  9997
2 28945   0.6228  86.1239 0004627  23.6398 250.2819  1.00270284 74458
JCSAT-5A                
1 29045U 06010A   26193.01876778 -.00000326  00000+0  00000+0 0  9992
2 29045   1.1710  83.9421 0001643  22.7465 322.0241  1.00270773 74012
ASTRA 1KR               
1 29055U 06012A   26193.13901786  .00000121  00000+0  00000+0 0  9998
2 29055   0.5357  83.1792 0003304  20.1496 255.7614  1.00268941 45948
GALAXY 16 (G-16)        
1 29236U 06023A   26193.22909458 -.00000124  00000+0  00000+0 0  9999
2 29236   0.0369 113.0101 0002445   8.0308 152.5559  1.00271234 73229
EUTELSAT 33F            
1 29270U 06032A   26193.14179119  .00000156  00000+0  00000+0 0  9995
2 29270   1.7235  81.9641 0003386  26.1899 265.9923  1.00270130 47555
