OBJECT_NAME,OBJECT_ID,EPOCH,MEAN_MOTION,ECCENTRICITY,INCLINATION,RA_OF_ASC_NODE,ARG_OF_PERICENTER,MEAN_ANOMALY,EPHEMERIS_TYPE,CLASSIFICATION_TYPE,NORAD_CAT_ID,ELEMENT_SET_NO,REV_AT_EPOCH,BSTAR,MEAN_MOTION_DOT,MEAN_MOTION_DDOT
NIMIQ 2,2002-062A,2026-07-12T02:27:34.466400,1.00270139,.0005271,9.5011,56.6304,53.0910,107.9713,0,U,27632,999,4443,0,-.75E-6,0
USA 167,2003-008A,2026-07-12T02:40:03.240768,1.00270394,.0003325,11.0088,43.1806,309.5051,215.6054,0,U,27691,999,702,0,-.2E-7,0
USA 169 (MILSTAR-2 4),2003-012A,2026-07-11T21:07:25.666752,1.00273664,.0099246,12.3855,29.6356,10.1630,358.9712,0,U,27711,999,3320,0,-.202E-5,0
ASIASAT 4,2003-014A,2026-07-11T14:20:46.717152,1.00270582,.00029082,4.7645,75.4402,35.8393,180.9556,0,U,27718,999,4554,0,-.222E-5,0
HELLAS-SAT 2,2003-020A,2026-07-11T20:21:17.899776,1.00271348,.00034704,7.4132,67.5860,79.1889,78.2695,0,U,27811,999,4309,0,-.88E-6,0
THURAYA-2,2003-026A,2026-07-12T03:27:17.959968,1.00272633,.0002565,8.8770,31.8615,23.8840,330.1229,0,U,27825,999,8459,0,.121E-5,0
OPTUS C1,2003-028B,2026-07-11T14:40:59.915712,1.00269515,.00052012,6.9479,69.1103,39.1910,197.1867,0,U,27831,999,5330,0,-.154E-5,0
USA 170,2003-040A,2026-07-11T19:43:46.143840,1.00274052,.00017612,10.5501,47.7102,81.9616,120.2124,0,U,27875,999,3324,0,.121E-5,0
GALAXY 13 (HORIZONS-1),2003-044A,2026-07-12T02:32:00.040128,1.00269952,.0002205,1.4817,83.5473,22.9442,71.5020,0,U,27954,999,4682,0,.134E-5,0
YAMAL 202,2003-053A,2026-07-11T14:46:51.485952,1.00272180,.00033325,6.4021,70.6413,37.7537,206.3876,0,U,28089,999,8294,0,-.82E-6,0
UFO 11 (USA 174),2003-057A,2026-07-12T01:53:38.820192,1.00270283,.0002649,8.9538,33.7024,90.2980,269.9767,0,U,28117,999,8269,0,-.108E-5,0
USA 176 (DSP 22),2004-004A,2026-07-12T00:42:00.046080,1.00266820,.0001104,12.0948,25.8814,285.8583,299.3115,0,U,28158,999,3318,0,-.302E-5,0
ABS-4 (MOBISAT-1),2004-007A,2026-07-12T03:42:21.436992,1.00272639,.0004605,6.1024,71.7028,40.4392,294.4345,0,U,28184,999,5258,0,.36E-6,0
INTELSAT 10-02,2004-022A,2026-07-11T23:49:12.660096,1.00270427,.0000593,0.0519,255.9518,328.8445,61.3886,0,U,28358,999,8080,0,-.8E-7,0
ANIK F2,2004-027A,2026-07-12T04:25:44.694048,1.00271164,.0003557,3.3495,79.1121,30.8308,135.4467,0,U,28378,999,4151,0,-.51E-6,0
AMC-15,2004-041A,2026-07-12T03:09:18.296064,1.00271279,.0002284,0.0348,303.4038,185.9206,102.9745,0,U,28446,999,7955,0,-.86E-6,0
NSS-10,2005-003A,2026-07-12T04:53:40.734816,1.00270905,.0002578,6.5097,70.1454,38.0995,217.8253,0,U,28526,999,5340,0,-.256E-5,0
INMARSAT 4-F1,2005-009A,2026-07-11T17:49:37.578720,1.00270973,.00024991,5.2002,42.7797,72.5823,259.7934,0,U,28628,999,7791,0,.32E-6,0
DIRECTV 8,2005-019A,2026-07-12T02:40:48.168768,1.00271091,.0003028,0.0201,75.6431,50.2413,85.2707,0,U,28659,999,7732,0,.4E-7,0
GALAXY 28 (G-28),2005-022A,2026-07-12T03:28:18.634368,1.00270933,.0002314,3.3609,78.6277,29.9876,206.3951,0,U,28702,999,5222,0,-.201E-5,0
THAICOM 4,2005-028A,2026-07-11T19:15:29.880288,1.00269596,.00013897,0.3063,85.5355,12.0878,240.4444,0,U,28786,999,5249,0,-.358E-5,0
ANIK F1R,2005-036A,2026-07-12T03:11:12.942816,1.00271312,.0003722,4.3738,76.2694,26.9449,127.3180,0,U,28868,999,4670,0,-.77E-6,0
SYRACUSE 3A,2005-041B,2026-07-12T00:32:51.603072,1.00272724,.0002744,4.7034,75.5350,29.8831,239.3434,0,U,28885,999,7599,0,.127E-5,0
INMARSAT 4-F2,2005-044A,2026-07-12T00:30:01.248192,1.00271075,.0002784,5.1261,43.6542,60.0005,337.2653,0,U,28899,999,7577,0,-.262E-5,0
METEOSAT-9 (MSG-2),2005-049B,2026-07-11T17:26:38.772960,1.00270407,.00020492,9.4145,53.9209,357.1028,185.9350,0,U,28912,999,724,0,.12E-5,0
EUTELSAT 174A,2005-052A,2026-07-11T14:50:49.830720,1.00270269,.00057839,4.2778,76.2239,36.7704,213.1891,0,U,28924,999,5257,0,.9E-7,0
ECHOSTAR 10,2006-003A,2026-07-12T04:25:59.668896,1.00270597,.0001091,0.0366,305.5143,140.4375,160.4487,0,U,28935,999,7471,0,-.53E-6,0
SPAINSAT,2006-007A,2026-07-11T06:44:08.847744,1.00270284,.0004627,0.6228,86.1239,23.6398,250.2819,0,U,28945,999,7445,0,-.211E-5,0
JCSAT-5A,2006-010A,2026-07-12T00:27:01.536192,1.00270773,.0001643,1.1710,83.9421,22.7465,322.0241,0,U,29045,999,7401,0,-.326E-5,0
ASTRA 1KR,2006-012A,2026-07-12T03:20:11.143104,1.00268941,.0003304,0.5357,83.1792,20.1496,255.7614,0,U,29055,999,4594,0,.121E-5,0
GALAXY 16 (G-16),2006-023A,2026-07-12T05:29:53.771712,1.00271234,.0002445,0.0369,113.0101,8.0308,152.5559,0,U,29236,999,7322,0,-.124E-5,0
EUTELSAT 33F,2006-032A,2026-07-12T03:24:10.758816,1.00270130,.0003386,1.7235,81.9641,26.1899,265.9923,0,U,29270,999,4755,0,.156E-5,0
